[{"OBJECT_NAME":"TIANMU-1 20","OBJECT_ID":"2023-208B","EPOCH":"2026-03-09T21:50:45.859200","MEAN_MOTION":15.31029249,"ECCENTRICITY":0.00061925,"INCLINATION":97.4323,"RA_OF_ASC_NODE":185.4313,"ARG_OF_PERICENTER":324.1763,"MEAN_ANOMALY":35.9062,"EPHEMERIS_TYPE":0,"CLASSIFICATION_TYPE":"U","NORAD_CAT_ID":58661,"ELEMENT_SET_NO":999,"REV_AT_EPOCH":12222,"BSTAR":0.0003681641,"MEAN_MOTION_DOT":0.00010969,"MEAN_MOTION_DDOT":0},{"OBJECT_NAME":"STARLINK-33925","OBJECT_ID":"2025-091U","EPOCH":"2026-03-09T22:41:15.190944","MEAN_MOTION":15.27602119,"ECCENTRICITY":0.00020427,"INCLINATION":43.0068,"RA_OF_ASC_NODE":50.8764,"ARG_OF_PERICENTER":273.7562,"MEAN_ANOMALY":86.3056,"EPHEMERIS_TYPE":0,"CLASSIFICATION_TYPE":"U","NORAD_CAT_ID":63793,"ELEMENT_SET_NO":999,"REV_AT_EPOCH":4905,"BSTAR":0.0013893248,"MEAN_MOTION_DOT":0.00038194,"MEAN_MOTION_DDOT":0}]
